[{"OBJECT_NAME":"STARLINK-5057","OBJECT_ID":"2022-119Y","EPOCH":"2026-03-09T21:26:51.021312","MEAN_MOTION":15.0882864,"ECCENTRICITY":0.00013037,"INCLINATION":53.2176,"RA_OF_ASC_NODE":313.3455,"ARG_OF_PERICENTER":81.8663,"MEAN_ANOMALY":278.2477,"EPHEMERIS_TYPE":0,"CLASSIFICATION_TYPE":"U","NORAD_CAT_ID":53908,"ELEMENT_SET_NO":999,"REV_AT_EPOCH":19185,"BSTAR":-8.2039681e-5,"MEAN_MOTION_DOT":-1.593e-5,"MEAN_MOTION_DDOT":0},{"OBJECT_NAME":"LEMUR-2-SIERRINI","OBJECT_ID":"2024-149DR","EPOCH":"2026-03-09T19:24:50.445216","MEAN_MOTION":15.08682764,"ECCENTRICITY":0.00065795,"INCLINATION":97.6873,"RA_OF_ASC_NODE":151.1225,"ARG_OF_PERICENTER":147.8458,"MEAN_ANOMALY":212.3173,"EPHEMERIS_TYPE":0,"CLASSIFICATION_TYPE":"U","NORAD_CAT_ID":60579,"ELEMENT_SET_NO":999,"REV_AT_EPOCH":8546,"BSTAR":0.00092040134,"MEAN_MOTION_DOT":0.00014386,"MEAN_MOTION_DDOT":0}]
